0 SL-8 R/B
1 22676U 93036B   13281.84821355  .00000039  00000-0  23380-4 0   516
2 22676 074.0418 125.2969 0018105 123.1685 237.1206 14.33463875 62254
0 SL-8 R/B
1 22676U 93036B   13283.10441826  .00000040  00000-0  23813-4 0   522
2 22676 074.0416 123.0009 0018099 120.4214 239.8729 14.33464386 62430
0 SL-8 R/B
1 22676U 93036B   13286.10535019  .00000046  00000-0  26082-4 0   542
2 22676 074.0414 117.5164 0018068 113.8262 246.4786 14.33464810 62869
0 SL-8 R/B
1 22676U 93036B   13287.50113239  .00000020  00000-0  16672-4 0   550
2 22676 074.0415 114.9654 0018061 110.7589 249.5499 14.33465486 63064
0 SL-8 R/B
1 22676U 93036B   13288.82712410  .00000055  00000-0  29374-4 0   564
2 22676 074.0417 112.5419 0018047 107.8305 252.4817 14.33465750 63258
0 SL-8 R/B
1 22676U 93036B   13290.08332675  .00000061  00000-0  31224-4 0   571
2 22676 074.0419 110.2459 0018037 105.0220 255.2930 14.33465996 63433
0 SL-8 R/B
1 22676U 93036B   13291.47910721  .00000067  00000-0  33396-4 0   588
2 22676 074.0421 107.6949 0018043 101.9653 258.3522 14.33466541 63632
0 SL-8 R/B
1 22676U 93036B   13292.52594201  .00000083  00000-0  39327-4 0   595
2 22676 074.0423 105.7817 0018043 099.6481 260.6709 14.33466763 63784
0 SL-8 R/B
1 22676U 93036B   13293.85193200  .00000135  00000-0  58149-4 0   609
2 22676 074.0425 103.3583 0018043 096.7530 263.5676 14.33466580 63976
0 SL-8 R/B
1 22676U 93036B   13295.52686734  .00000140  00000-0  59896-4 0   611
2 22676 074.0425 100.2973 0018047 093.0539 267.2678 14.33467318 64219
